
# Worst residual: 35.74 km
# MJD 58728.000000 (2019 Sep  2  0:00)
1983-020D = NORAD 20413 = ASTRON booster
1 20413U 83020D   19245.49918769  .00000000  00000-0  00000-0 0  4644
2 20413 021.5277 227.9635 8846787 201.0501 039.3879 00.24725177    01

# Worst residual: 18.00 km
# MJD 58729.000000 (2019 Sep  3  0:00)
1983-020D = NORAD 20413 = ASTRON booster
1 20413U 83020D   19246.49918769  .00000000  00000-0  00000-0 0  4645
2 20413 021.4078 227.8560 8863583 201.1045 127.9853 00.24690941    08

# Worst residual: 10.38 km
# MJD 58730.000000 (2019 Sep  4  0:00)
1983-020D = NORAD 20413 = ASTRON booster
1 20413U 83020D   19247.49918769  .00000000  00000-0  00000-0 0  4646
2 20413 021.2102 227.6343 8880651 201.3220 216.8141 00.24717738    05

# Worst residual: 22.63 km
# MJD 58731.000000 (2019 Sep  5  0:00)
1983-020D = NORAD 20413 = ASTRON booster
1 20413U 83020D   19248.49918769  .00000000  00000-0  00000-0 0  4647
2 20413 021.0751 227.4303 8890202 201.5294 305.9525 00.24698972    07

# Worst residual: 25.97 km
# MJD 58732.000000 (2019 Sep  6  0:00)
1983-020D = NORAD 20413 = ASTRON booster
1 20413U 83020D   19249.49918769  .00000000  00000-0  00000-0 0  4648
2 20413 020.9764 227.2813 8895848 201.7720 034.8905 00.24707712    03

# Worst residual: 7.37 km
# MJD 58733.000000 (2019 Sep  7  0:00)
1983-020D = NORAD 20413 = ASTRON booster
1 20413U 83020D   19250.49918769  .00000000  00000-0  00000-0 0  4640
2 20413 020.7986 227.1560 8892903 201.9059 124.0870 00.24746475    03

# Worst residual: 4.39 km
# MJD 58734.000000 (2019 Sep  8  0:00)
1983-020D = NORAD 20413 = ASTRON booster
1 20413U 83020D   19251.49918769  .00000000  00000-0  00000-0 0  4641
2 20413 020.6559 226.9832 8892037 202.0674 213.2753 00.24744220    07

# Worst residual: 13.89 km
# MJD 58735.000000 (2019 Sep  9  0:00)
1983-020D = NORAD 20413 = ASTRON booster
1 20413U 83020D   19252.49918769  .00000000  00000-0  00000-0 0  4642
2 20413 020.5333 226.7908 8891535 202.2538 302.2924 00.24746899    04

# Worst residual: 16.22 km
# MJD 58736.000000 (2019 Sep 10  0:00)
1983-020D = NORAD 20413 = ASTRON booster
1 20413U 83020D   19253.49918769  .00000000  00000-0  00000-0 0  4643
2 20413 020.4324 226.5763 8890107 202.4356 031.3443 00.24765842    09

# Worst residual: 5.97 km
# MJD 58737.000000 (2019 Sep 11  0:00)
1983-020D = NORAD 20413 = ASTRON booster
1 20413U 83020D   19254.49918769  .00000000  00000-0  00000-0 0  4644
2 20413 020.4077 226.4937 8896716 202.5088 120.3217 00.24746417    06

# Worst residual: 2.56 km
# MJD 58738.000000 (2019 Sep 12  0:00)
1983-020D = NORAD 20413 = ASTRON booster
1 20413U 83020D   19255.49918769  .00000000  00000-0  00000-0 0  4645
2 20413 020.4176 226.4706 8901868 202.5394 209.3935 00.24753026    04

# Worst residual: 7.16 km
# MJD 58739.000000 (2019 Sep 13  0:00)
1983-020D = NORAD 20413 = ASTRON booster
1 20413U 83020D   19256.49918769  .00000000  00000-0  00000-0 0  4646
2 20413 020.3680 226.4049 8903623 202.6194 298.4481 00.24758831    07

# Worst residual: 32.56 km
# MJD 58740.000000 (2019 Sep 14  0:00)
1983-020D = NORAD 20413 = ASTRON booster
1 20413U 83020D   19257.49918769  .00000000  00000-0  00000-0 0  4647
2 20413 020.3002 226.3056 8902622 202.7134 027.5766 00.24801104    04

# Worst residual: 8.11 km
# MJD 58741.000000 (2019 Sep 15  0:00)
1983-020D = NORAD 20413 = ASTRON booster
1 20413U 83020D   19258.49918769  .00000000  00000-0  00000-0 0  4648
2 20413 020.2192 226.1881 8910810 202.8275 116.4575 00.24743768    09

# Worst residual: 6.56 km
# MJD 58742.000000 (2019 Sep 16  0:00)
1983-020D = NORAD 20413 = ASTRON booster
1 20413U 83020D   19259.49918769  .00000000  00000-0  00000-0 0  4649
2 20413 020.1285 226.0589 8909247 202.9755 205.4249 00.24732419    09

# Worst residual: 22.09 km
# MJD 58743.000000 (2019 Sep 17  0:00)
1983-020D = NORAD 20413 = ASTRON booster
1 20413U 83020D   19260.49918769  .00000000  00000-0  00000-0 0  4641
2 20413 020.0734 225.9831 8906980 203.0076 294.5733 00.24693551    04

# Worst residual: 28.50 km
# MJD 58744.000000 (2019 Sep 18  0:00)
1983-020D = NORAD 20413 = ASTRON booster
1 20413U 83020D   19261.49918769  .00000000  00000-0  00000-0 0  4642
2 20413 020.0079 225.8929 8912966 203.1770 023.4962 00.24698477    01

# Worst residual: 2.94 km
# MJD 58745.000000 (2019 Sep 19  0:00)
1983-020D = NORAD 20413 = ASTRON booster
1 20413U 83020D   19262.49918769  .00000000  00000-0  00000-0 0  4643
2 20413 019.9159 225.7799 8914089 203.2749 112.5517 00.24731827    09

# Worst residual: 5.97 km
# MJD 58746.000000 (2019 Sep 20  0:00)
1983-020D = NORAD 20413 = ASTRON booster
1 20413U 83020D   19263.49918769  .00000000  00000-0  00000-0 0  4644
2 20413 019.9362 225.7647 8913395 203.3011 201.6049 00.24728438    03

# Worst residual: 8.58 km
# MJD 58747.000000 (2019 Sep 21  0:00)
1983-020D = NORAD 20413 = ASTRON booster
1 20413U 83020D   19264.49918769  .00000000  00000-0  00000-0 0  4645
2 20413 019.9729 225.8438 8913825 203.2166 290.6873 00.24711020    09

# Worst residual: 14.99 km
# MJD 58748.000000 (2019 Sep 22  0:00)
1983-020D = NORAD 20413 = ASTRON booster
1 20413U 83020D   19265.49918769  .00000000  00000-0  00000-0 0  4646
2 20413 019.8952 225.6904 8917348 203.4117 019.6442 00.24717083    00

# Worst residual: 3.31 km
# MJD 58749.000000 (2019 Sep 23  0:00)
1983-020D = NORAD 20413 = ASTRON booster
1 20413U 83020D   19266.49918769  .00000000  00000-0  00000-0 0  4647
2 20413 019.8029 225.5864 8917919 203.5296 108.6882 00.24734137    08

# Worst residual: 6.08 km
# MJD 58750.000000 (2019 Sep 24  0:00)
1983-020D = NORAD 20413 = ASTRON booster
1 20413U 83020D   19267.49918769  .00000000  00000-0  00000-0 0  4648
2 20413 019.7930 225.5321 8921188 203.6035 197.6112 00.24733923    07

# Worst residual: 21.28 km
# MJD 58751.000000 (2019 Sep 25  0:00)
1983-020D = NORAD 20413 = ASTRON booster
1 20413U 83020D   19268.49918769  .00000000  00000-0  00000-0 0  4649
2 20413 019.7063 225.3852 8921652 203.7864 286.4203 00.24758099    07

# Worst residual: 41.51 km
# MJD 58752.000000 (2019 Sep 26  0:00)
1983-020D = NORAD 20413 = ASTRON booster
1 20413U 83020D   19269.49918769  .00000000  00000-0  00000-0 0  4640
2 20413 019.6126 225.1899 8914647 203.9444 015.5215 00.24870192    00

# Worst residual: 9.99 km
# MJD 58753.000000 (2019 Sep 27  0:00)
1983-020D = NORAD 20413 = ASTRON booster
1 20413U 83020D   19270.49918769  .00000000  00000-0  00000-0 0  4642
2 20413 019.5433 225.0584 8925766 204.0534 104.5084 00.24776593    09

# Worst residual: 9.12 km
# MJD 58754.000000 (2019 Sep 28  0:00)
1983-020D = NORAD 20413 = ASTRON booster
1 20413U 83020D   19271.49918769  .00000000  00000-0  00000-0 0  4643
2 20413 019.4162 224.8740 8923942 204.2511 193.6381 00.24764972    06
